<?xml version="1.0" encoding="UTF-8"?>
<ndm xmlns:xsi="http://www.w3.org/2001/XMLSchema-instance" xsi:noNamespaceSchemaLocation="https://sanaregistry.org/r/ndmxml_unqualified/ndmxml-2.0.0-master-2.0.xsd">
<omm id="CCSDS_OMM_VERS" version="2.0">
<header><CREATION_DATE/><ORIGINATOR/></header><body><segment><metadata><OBJECT_NAME>IRIDIUM 106</OBJECT_NAME><OBJECT_ID>2017-003A</OBJECT_ID><CENTER_NAME>EARTH</CENTER_NAME><REF_FRAME>TEME</REF_FRAME><TIME_SYSTEM>UTC</TIME_SYSTEM><MEAN_ELEMENT_THEORY>SGP4</MEAN_ELEMENT_THEORY></metadata><data><meanElements><EPOCH>2023-08-27T21:26:49.103232</EPOCH><MEAN_MOTION>14.34237606</MEAN_MOTION><ECCENTRICITY>.0002466</ECCENTRICITY><INCLINATION>86.4032</INCLINATION><RA_OF_ASC_NODE>156.6068</RA_OF_ASC_NODE><ARG_OF_PERICENTER>76.2569</ARG_OF_PERICENTER><MEAN_ANOMALY>283.8901</MEAN_ANOMALY></meanElements><tleParameters><EPHEMERIS_TYPE>0</EPHEMERIS_TYPE><CLASSIFICATION_TYPE>U</CLASSIFICATION_TYPE><NORAD_CAT_ID>41917</NORAD_CAT_ID><ELEMENT_SET_NO>999</ELEMENT_SET_NO><REV_AT_EPOCH>34639</REV_AT_EPOCH><BSTAR>.17853E-3</BSTAR><MEAN_MOTION_DOT>.52E-5</MEAN_MOTION_DOT><MEAN_MOTION_DDOT>0</MEAN_MOTION_DDOT></tleParameters></data></segment></body></omm>
<omm id="CCSDS_OMM_VERS" version="2.0">
<header><CREATION_DATE/><ORIGINATOR/></header><body><segment><metadata><OBJECT_NAME>IRIDIUM 103</OBJECT_NAME><OBJECT_ID>2017-003B</OBJECT_ID><CENTER_NAME>EARTH</CENTER_NAME><REF_FRAME>TEME</REF_FRAME><TIME_SYSTEM>UTC</TIME_SYSTEM><MEAN_ELEMENT_THEORY>SGP4</MEAN_ELEMENT_THEORY></metadata><data><meanElements><EPOCH>2023-08-27T19:28:06.690720</EPOCH><MEAN_MOTION>14.34216333</MEAN_MOTION><ECCENTRICITY>.0002468</ECCENTRICITY><INCLINATION>86.4032</INCLINATION><RA_OF_ASC_NODE>156.5438</RA_OF_ASC_NODE><ARG_OF_PERICENTER>89.8691</ARG_OF_PERICENTER><MEAN_ANOMALY>270.2787</MEAN_ANOMALY></meanElements><tleParameters><EPHEMERIS_TYPE>0</EPHEMERIS_TYPE><CLASSIFICATION_TYPE>U</CLASSIFICATION_TYPE><NORAD_CAT_ID>41918</NORAD_CAT_ID><ELEMENT_SET_NO>999</ELEMENT_SET_NO><REV_AT_EPOCH>34640</REV_AT_EPOCH><BSTAR>.94434E-4</BSTAR><MEAN_MOTION_DOT>.284E-5</MEAN_MOTION_DOT><MEAN_MOTION_DDOT>0</MEAN_MOTION_DDOT></tleParameters></data></segment></body></omm>
<omm id="CCSDS_OMM_VERS" version="2.0">
<header><CREATION_DATE/><ORIGINATOR/></header><body><segment><metadata><OBJECT_NAME>IRIDIUM 109</OBJECT_NAME><OBJECT_ID>2017-003C</OBJECT_ID><CENTER_NAME>EARTH</CENTER_NAME><REF_FRAME>TEME</REF_FRAME><TIME_SYSTEM>UTC</TIME_SYSTEM><MEAN_ELEMENT_THEORY>SGP4</MEAN_ELEMENT_THEORY></metadata><data><meanElements><EPOCH>2023-08-27T21:17:42.304416</EPOCH><MEAN_MOTION>14.34218567</MEAN_MOTION><ECCENTRICITY>.0002132</ECCENTRICITY><INCLINATION>86.4034</INCLINATION><RA_OF_ASC_NODE>156.5546</RA_OF_ASC_NODE><ARG_OF_PERICENTER>90.7797</ARG_OF_PERICENTER><MEAN_ANOMALY>269.3643</MEAN_ANOMALY></meanElements><tleParameters><EPHEMERIS_TYPE>0</EPHEMERIS_TYPE><CLASSIFICATION_TYPE>U</CLASSIFICATION_TYPE><NORAD_CAT_ID>41919</NORAD_CAT_ID><ELEMENT_SET_NO>999</ELEMENT_SET_NO><REV_AT_EPOCH>34638</REV_AT_EPOCH><BSTAR>.10534E-3</BSTAR><MEAN_MOTION_DOT>.315E-5</MEAN_MOTION_DOT><MEAN_MOTION_DDOT>0</MEAN_MOTION_DDOT></tleParameters></data></segment></body></omm>
<omm id="CCSDS_OMM_VERS" version="2.0">
<header><CREATION_DATE/><ORIGINATOR/></header><body><segment><metadata><OBJECT_NAME>IRIDIUM 102</OBJECT_NAME><OBJECT_ID>2017-003D</OBJECT_ID><CENTER_NAME>EARTH</CENTER_NAME><REF_FRAME>TEME</REF_FRAME><TIME_SYSTEM>UTC</TIME_SYSTEM><MEAN_ELEMENT_THEORY>SGP4</MEAN_ELEMENT_THEORY></metadata><data><meanElements><EPOCH>2023-08-27T20:32:02.513760</EPOCH><MEAN_MOTION>14.34217752</MEAN_MOTION><ECCENTRICITY>.0002185</ECCENTRICITY><INCLINATION>86.4032</INCLINATION><RA_OF_ASC_NODE>156.5132</RA_OF_ASC_NODE><ARG_OF_PERICENTER>86.0608</ARG_OF_PERICENTER><MEAN_ANOMALY>274.0838</MEAN_ANOMALY></meanElements><tleParameters><EPHEMERIS_TYPE>0</EPHEMERIS_TYPE><CLASSIFICATION_TYPE>U</CLASSIFICATION_TYPE><NORAD_CAT_ID>41920</NORAD_CAT_ID><ELEMENT_SET_NO>999</ELEMENT_SET_NO><REV_AT_EPOCH>34646</REV_AT_EPOCH><BSTAR>.10109E-3</BSTAR><MEAN_MOTION_DOT>.303E-5</MEAN_MOTION_DOT><MEAN_MOTION_DDOT>0</MEAN_MOTION_DDOT></tleParameters></data></segment></body></omm>
<omm id="CCSDS_OMM_VERS" version="2.0">
<header><CREATION_DATE/><ORIGINATOR/></header><body><segment><metadata><OBJECT_NAME>IRIDIUM 105</OBJECT_NAME><OBJECT_ID>2017-003E</OBJECT_ID><CENTER_NAME>EARTH</CENTER_NAME><REF_FRAME>TEME</REF_FRAME><TIME_SYSTEM>UTC</TIME_SYSTEM><MEAN_ELEMENT_THEORY>SGP4</MEAN_ELEMENT_THEORY></metadata><data><meanElements><EPOCH>2023-08-27T19:49:50.899584</EPOCH><MEAN_MOTION>14.34211614</MEAN_MOTION><ECCENTRICITY>.000217</ECCENTRICITY><INCLINATION>86.3978</INCLINATION><RA_OF_ASC_NODE>124.9758</RA_OF_ASC_NODE><ARG_OF_PERICENTER>86.0172</ARG_OF_PERICENTER><MEAN_ANOMALY>274.1272</MEAN_ANOMALY></meanElements><tleParameters><EPHEMERIS_TYPE>0</EPHEMERIS_TYPE><CLASSIFICATION_TYPE>U</CLASSIFICATION_TYPE><NORAD_CAT_ID>41921</NORAD_CAT_ID><ELEMENT_SET_NO>999</ELEMENT_SET_NO><REV_AT_EPOCH>34831</REV_AT_EPOCH><BSTAR>.9905E-4</BSTAR><MEAN_MOTION_DOT>.297E-5</MEAN_MOTION_DOT><MEAN_MOTION_DDOT>0</MEAN_MOTION_DDOT></tleParameters></data></segment></body></omm>
<omm id="CCSDS_OMM_VERS" version="2.0">
<header><CREATION_DATE/><ORIGINATOR/></header><body><segment><metadata><OBJECT_NAME>IRIDIUM 104</OBJECT_NAME><OBJECT_ID>2017-003F</OBJECT_ID><CENTER_NAME>EARTH</CENTER_NAME><REF_FRAME>TEME</REF_FRAME><TIME_SYSTEM>UTC</TIME_SYSTEM><MEAN_ELEMENT_THEORY>SGP4</MEAN_ELEMENT_THEORY></metadata><data><meanElements><EPOCH>2023-08-27T20:50:17.913696</EPOCH><MEAN_MOTION>14.34221090</MEAN_MOTION><ECCENTRICITY>.0002334</ECCENTRICITY><INCLINATION>86.4033</INCLINATION><RA_OF_ASC_NODE>156.5351</RA_OF_ASC_NODE><ARG_OF_PERICENTER>85.7696</ARG_OF_PERICENTER><MEAN_ANOMALY>274.3767</MEAN_ANOMALY></meanElements><tleParameters><EPHEMERIS_TYPE>0</EPHEMERIS_TYPE><CLASSIFICATION_TYPE>U</CLASSIFICATION_TYPE><NORAD_CAT_ID>41922</NORAD_CAT_ID><ELEMENT_SET_NO>999</ELEMENT_SET_NO><REV_AT_EPOCH>34645</REV_AT_EPOCH><BSTAR>.10607E-3</BSTAR><MEAN_MOTION_DOT>.317E-5</MEAN_MOTION_DOT><MEAN_MOTION_DDOT>0</MEAN_MOTION_DDOT></tleParameters></data></segment></body></omm>
<omm id="CCSDS_OMM_VERS" version="2.0">
<header><CREATION_DATE/><ORIGINATOR/></header><body><segment><metadata><OBJECT_NAME>IRIDIUM 114</OBJECT_NAME><OBJECT_ID>2017-003G</OBJECT_ID><CENTER_NAME>EARTH</CENTER_NAME><REF_FRAME>TEME</REF_FRAME><TIME_SYSTEM>UTC</TIME_SYSTEM><MEAN_ELEMENT_THEORY>SGP4</MEAN_ELEMENT_THEORY></metadata><data><meanElements><EPOCH>2023-08-27T20:59:26.246112</EPOCH><MEAN_MOTION>14.34220128</MEAN_MOTION><ECCENTRICITY>.000225</ECCENTRICITY><INCLINATION>86.4033</INCLINATION><RA_OF_ASC_NODE>156.5191</RA_OF_ASC_NODE><ARG_OF_PERICENTER>77.7701</ARG_OF_PERICENTER><MEAN_ANOMALY>282.3747</MEAN_ANOMALY></meanElements><tleParameters><EPHEMERIS_TYPE>0</EPHEMERIS_TYPE><CLASSIFICATION_TYPE>U</CLASSIFICATION_TYPE><NORAD_CAT_ID>41923</NORAD_CAT_ID><ELEMENT_SET_NO>999</ELEMENT_SET_NO><REV_AT_EPOCH>34643</REV_AT_EPOCH><BSTAR>.10693E-3</BSTAR><MEAN_MOTION_DOT>.319E-5</MEAN_MOTION_DOT><MEAN_MOTION_DDOT>0</MEAN_MOTION_DDOT></tleParameters></data></segment></body></omm>
<omm id="CCSDS_OMM_VERS" version="2.0">
<header><CREATION_DATE/><ORIGINATOR/></header><body><segment><metadata><OBJECT_NAME>IRIDIUM 108</OBJECT_NAME><OBJECT_ID>2017-003H</OBJECT_ID><CENTER_NAME>EARTH</CENTER_NAME><REF_FRAME>TEME</REF_FRAME><TIME_SYSTEM>UTC</TIME_SYSTEM><MEAN_ELEMENT_THEORY>SGP4</MEAN_ELEMENT_THEORY></metadata><data><meanElements><EPOCH>2023-08-27T18:19:14.616768</EPOCH><MEAN_MOTION>14.34217314</MEAN_MOTION><ECCENTRICITY>.0002387</ECCENTRICITY><INCLINATION>86.3973</INCLINATION><RA_OF_ASC_NODE>124.9459</RA_OF_ASC_NODE><ARG_OF_PERICENTER>80.7902</ARG_OF_PERICENTER><MEAN_ANOMALY>279.3563</MEAN_ANOMALY></meanElements><tleParameters><EPHEMERIS_TYPE>0</EPHEMERIS_TYPE><CLASSIFICATION_TYPE>U</CLASSIFICATION_TYPE><NORAD_CAT_ID>41924</NORAD_CAT_ID><ELEMENT_SET_NO>999</ELEMENT_SET_NO><REV_AT_EPOCH>34827</REV_AT_EPOCH><BSTAR>.10225E-3</BSTAR><MEAN_MOTION_DOT>.306E-5</MEAN_MOTION_DOT><MEAN_MOTION_DDOT>0</MEAN_MOTION_DDOT></tleParameters></data></segment></body></omm>

</ndm>
