IRIDIUM 106             
1 41917U 17003A   23239.89362388  .00000520  00000+0  17853-3 0  9992
2 41917  86.4032 156.6068 0002466  76.2569 283.8901 14.34237606346394
IRIDIUM 103             
1 41918U 17003B   23239.81118855  .00000284  00000+0  94434-4 0  9991
2 41918  86.4032 156.5438 0002468  89.8691 270.2787 14.34216333346401
IRIDIUM 109             
1 41919U 17003C   23239.88729519  .00000315  00000+0  10534-3 0  9997
2 41919  86.4034 156.5546 0002132  90.7797 269.3643 14.34218567346388
IRIDIUM 102             
1 41920U 17003D   23239.85558465  .00000303  00000+0  10109-3 0  9991
2 41920  86.4032 156.5132 0002185  86.0608 274.0838 14.34217752346469
IRIDIUM 105             
1 41921U 17003E   23239.82628356  .00000297  00000+0  99050-4 0  9991
2 41921  86.3978 124.9758 0002170  86.0172 274.1272 14.34211614348311
IRIDIUM 104             
1 41922U 17003F   23239.86826289  .00000317  00000+0  10607-3 0  9994
2 41922  86.4033 156.5351 0002334  85.7696 274.3767 14.34221090346457
IRIDIUM 114             
1 41923U 17003G   23239.87460933  .00000319  00000+0  10693-3 0  9993
2 41923  86.4033 156.5191 0002250  77.7701 282.3747 14.34220128346431
IRIDIUM 108             
1 41924U 17003H   23239.76336362  .00000306  00000+0  10225-3 0  9997
2 41924  86.3973 124.9459 0002387  80.7902 279.3563 14.34217314348277
